$$SOE
2461302.500000000, A.D. 2026-Sep-19 00:00:00.0000, -6.869414065614420E+08, -2.143840637730278E+08, 6.400255618124452E+07,
2461309.500000000, A.D. 2026-Sep-26 00:00:00.0000, -6.858720116016575E+08, -2.215305327184453E+08, 6.425514948392826E+07,
2461316.500000000, A.D. 2026-Oct-03 00:00:00.0000, -6.847147033381894E+08, -2.286486095748918E+08, 6.449950630000930E+07,
2461323.500000000, A.D. 2026-Oct-10 00:00:00.0000, -6.834700438833587E+08, -2.357375223733357E+08, 6.473563426381409E+07,
2461330.500000000, A.D. 2026-Oct-17 00:00:00.0000, -6.821385939995114E+08, -2.427965078921813E+08, 6.496354131567075E+07,
2461337.500000000, A.D. 2026-Oct-24 00:00:00.0000, -6.807209131494963E+08, -2.498248114529387E+08, 6.518323568793219E+07,
2461344.500000000, A.D. 2026-Oct-31 00:00:00.0000, -6.792175594625694E+08, -2.568216868832517E+08, 6.539472586947045E+07,
2461351.500000000, A.D. 2026-Nov-07 00:00:00.0000, -6.776290892765056E+08, -2.637863965730586E+08, 6.559802052374501E+07,
2461358.500000000, A.D. 2026-Nov-14 00:00:00.0000, -6.759560560548307E+08, -2.707182107363199E+08, 6.579312841472008E+07,
2461365.500000000, A.D. 2026-Nov-21 00:00:00.0000, -6.741990104906485E+08, -2.776164051963657E+08, 6.598005856272133E+07,
2461372.500000000, A.D. 2026-Nov-28 00:00:00.0000, -6.723585027950814E+08, -2.844802607030162E+08, 6.615882047618736E+07,
2461379.500000000, A.D. 2026-Dec-05 00:00:00.0000, -6.704350835509844E+08, -2.913090644378177E+08, 6.632942407401655E+07,
2461386.500000000, A.D. 2026-Dec-12 00:00:00.0000, -6.684293029669805E+08, -2.981021105961404E+08, 6.649187953792323E+07,
2461393.500000000, A.D. 2026-Dec-19 00:00:00.0000, -6.663417104187701E+08, -3.048587000395129E+08, 6.664619726864810E+07,
2461400.500000000, A.D. 2026-Dec-26 00:00:00.0000, -6.641728544199556E+08, -3.115781398862781E+08, 6.679238788833409E+07,
2461407.500000000, A.D. 2027-Jan-02 00:00:00.0000, -6.619232827467957E+08, -3.182597432316444E+08, 6.693046224833312E+07,
2461414.500000000, A.D. 2027-Jan-09 00:00:00.0000, -6.595935426006230E+08, -3.249028289771220E+08, 6.706043143350016E+07,
2461421.500000000, A.D. 2027-Jan-16 00:00:00.0000, -6.571841807736856E+08, -3.315067217606431E+08, 6.718230676053956E+07,
2461428.500000000, A.D. 2027-Jan-23 00:00:00.0000, -6.546957437738432E+08, -3.380707520270551E+08, 6.729609976297273E+07,
2461435.500000000, A.D. 2027-Jan-30 00:00:00.0000, -6.521287777219502E+08, -3.445942562867661E+08, 6.740182214156860E+07,
2461442.500000000, A.D. 2027-Feb-06 00:00:00.0000, -6.494838275987104E+08, -3.510765772224183E+08, 6.749948566896126E+07,
2461449.500000000, A.D. 2027-Feb-13 00:00:00.0000, -6.467614363026005E+08, -3.575170624237850E+08, 6.758910219017956E+07,
2461456.500000000, A.D. 2027-Feb-20 00:00:00.0000, -6.439621458836679E+08, -3.639150625418826E+08, 6.767068387101465E+07,
2461463.500000000, A.D. 2027-Feb-27 00:00:00.0000, -6.410864995581304E+08, -3.702699320761763E+08, 6.774424330334353E+07,
2461470.500000000, A.D. 2027-Mar-06 00:00:00.0000, -6.381350414863853E+08, -3.765810308724086E+08, 6.780979334754249E+07,
2461477.500000000, A.D. 2027-Mar-13 00:00:00.0000, -6.351083159149604E+08, -3.828477242814925E+08, 6.786734702606022E+07,
2461484.500000000, A.D. 2027-Mar-20 00:00:00.0000, -6.320068668118691E+08, -3.890693828140867E+08, 6.791691750333667E+07,
2461491.500000000, A.D. 2027-Mar-27 00:00:00.0000, -6.288312377934576E+08, -3.952453818398357E+08, 6.795851808853623E+07,
2461498.500000000, A.D. 2027-Apr-03 00:00:00.0000, -6.255819721399798E+08, -4.013751013790032E+08, 6.799216223848900E+07,
2461505.500000000, A.D. 2027-Apr-10 00:00:00.0000, -6.222596128387727E+08, -4.074579259633242E+08, 6.801786355704284E+07,
2461512.500000000, A.D. 2027-Apr-17 00:00:00.0000, -6.188647026329701E+08, -4.134932445802188E+08, 6.803563578758399E+07,
2461519.500000000, A.D. 2027-Apr-24 00:00:00.0000, -6.153977839964871E+08, -4.194804507623577E+08, 6.804549278634232E+07,
2461526.500000000, A.D. 2027-May-01 00:00:00.0000, -6.118593987355304E+08, -4.254189427946157E+08, 6.804744845124993E+07,
2461533.500000000, A.D. 2027-May-08 00:00:00.0000, -6.082500869090984E+08, -4.313081232898753E+08, 6.804151663930926E+07,
2461540.500000000, A.D. 2027-May-15 00:00:00.0000, -6.045703865651205E+08, -4.371473971801356E+08, 6.802771128766517E+07,
2461547.500000000, A.D. 2027-May-22 00:00:00.0000, -6.008208358559071E+08, -4.429361707145810E+08, 6.800604667001681E+07,
2461554.500000000, A.D. 2027-May-29 00:00:00.0000, -5.970019741771169E+08, -4.486738529330783E+08, 6.797653736067753E+07,
2461561.500000000, A.D. 2027-Jun-05 00:00:00.0000, -5.931143414455956E+08, -4.543598564833128E+08, 6.793919808119887E+07,
2461568.500000000, A.D. 2027-Jun-12 00:00:00.0000, -5.891584775235716E+08, -4.599935973495704E+08, 6.789404364907832E+07,
2461575.500000000, A.D. 2027-Jun-19 00:00:00.0000, -5.851349221201046E+08, -4.655744944280831E+08, 6.784108898262124E+07,
2461582.500000000, A.D. 2027-Jun-26 00:00:00.0000, -5.810442148903275E+08, -4.711019692102633E+08, 6.778034911514181E+07,
2461589.500000000, A.D. 2027-Jul-03 00:00:00.0000, -5.768868956003934E+08, -4.765754455655628E+08, 6.771183920728022E+07,
2461596.500000000, A.D. 2027-Jul-10 00:00:00.0000, -5.726635043213532E+08, -4.819943496152237E+08, 6.763557455501451E+07,
2461603.500000000, A.D. 2027-Jul-17 00:00:00.0000, -5.683745816156708E+08, -4.873581097357482E+08, 6.755157058711660E+07,
2461610.500000000, A.D. 2027-Jul-24 00:00:00.0000, -5.640206685599889E+08, -4.926661567548381E+08, 6.745984283282256E+07,
2461617.500000000, A.D. 2027-Jul-31 00:00:00.0000, -5.596023061927357E+08, -4.979179241042229E+08, 6.736040684145853E+07,
2461624.500000000, A.D. 2027-Aug-07 00:00:00.0000, -5.551200345872664E+08, -5.031128467775463E+08, 6.725327816672637E+07,
2461631.500000000, A.D. 2027-Aug-14 00:00:00.0000, -5.505743938515201E+08, -5.082503593465402E+08, 6.713847260608159E+07,
2461638.500000000, A.D. 2027-Aug-21 00:00:00.0000, -5.459659264359380E+08, -5.133298963998010E+08, 6.701600636359556E+07,
2461645.500000000, A.D. 2027-Aug-28 00:00:00.0000, -5.412951773188115E+08, -5.183508942011480E+08, 6.688589591996221E+07,
2461652.500000000, A.D. 2027-Sep-04 00:00:00.0000, -5.365626932504001E+08, -5.233127910651729E+08, 6.674815792238829E+07,
2461659.500000000, A.D. 2027-Sep-11 00:00:00.0000, -5.317690224511364E+08, -5.282150271110963E+08, 6.660280916809058E+07,
2461666.500000000, A.D. 2027-Sep-18 00:00:00.0000, -5.269147146306837E+08, -5.330570440448968E+08, 6.644986661578870E+07,
2461673.500000000, A.D. 2027-Sep-25 00:00:00.0000, -5.220003210989777E+08, -5.378382850470432E+08, 6.628934739758298E+07,
2461680.500000000, A.D. 2027-Oct-02 00:00:00.0000, -5.170263948941922E+08, -5.425581947378472E+08, 6.612126882631382E+07,
2461687.500000000, A.D. 2027-Oct-09 00:00:00.0000, -5.119934909050840E+08, -5.472162192244254E+08, 6.594564839570755E+07,
2461694.500000000, A.D. 2027-Oct-16 00:00:00.0000, -5.069021659243622E+08, -5.518118062836286E+08, 6.576250376278976E+07,
2461701.500000000, A.D. 2027-Oct-23 00:00:00.0000, -5.017529783729773E+08, -5.563444056862125E+08, 6.557185268806189E+07,
2461708.500000000, A.D. 2027-Oct-30 00:00:00.0000, -4.965464873204237E+08, -5.608134690516219E+08, 6.537371294880739E+07,
2461715.500000000, A.D. 2027-Nov-06 00:00:00.0000, -4.912832519643482E+08, -5.652184481049964E+08, 6.516810242432576E+07,
2461722.500000000, A.D. 2027-Nov-13 00:00:00.0000, -4.859638335547813E+08, -5.695587934124820E+08, 6.495503936544076E+07,
2461729.500000000, A.D. 2027-Nov-20 00:00:00.0000, -4.805887968612257E+08, -5.738339557808344E+08, 6.473454240351087E+07,
2461736.500000000, A.D. 2027-Nov-27 00:00:00.0000, -4.751587095653582E+08, -5.780433873569005E+08, 6.450663039293948E+07,
2461743.500000000, A.D. 2027-Dec-04 00:00:00.0000, -4.696741416030892E+08, -5.821865415128137E+08, 6.427132234752965E+07,
2461750.500000000, A.D. 2027-Dec-11 00:00:00.0000, -4.641356650065461E+08, -5.862628724805984E+08, 6.402863744243559E+07,
2461757.500000000, A.D. 2027-Dec-18 00:00:00.0000, -4.585438539709466E+08, -5.902718350750864E+08, 6.377859502883518E+07,
2461764.500000000, A.D. 2027-Dec-25 00:00:00.0000, -4.528992849943376E+08, -5.942128845071949E+08, 6.352121464728391E+07,
2461771.500000000, A.D. 2028-Jan-01 00:00:00.0000, -4.472025370487989E+08, -5.980854762729084E+08, 6.325651603724769E+07,
$$EOE